TEVEL2-4                
1 63213U 25052D   26068.69417973  .00020990  00000+0  70363-3 0  9998
2 63213  97.4009 325.1237 0004733  95.3468 264.8313 15.30925813 54879
STARLINK-34859          
1 65348U 25189AB  26068.68434007  .00023770  00000+0  81203-3 0  9990
2 65348  53.1585 206.9335 0000921  89.5242 270.5864 15.30202852 31100
